NORAD_CAT_ID,OBJECT_NAME,OBJECT_TYPE,EPOCH,MEAN_MOTION,ECCENTRICITY,INCLINATION,RA_OF_ASC_NODE,ARG_OF_PERICENTER,MEAN_ANOMALY,BSTAR,MEAN_MOTION_DOT,MEAN_MOTION_DDOT,TLE_LINE0,TLE_LINE1,TLE_LINE2,SEMIMAJOR_AXIS,PERIOD,APOGEE,PERIGEE,DECAYED
56456.0,STARLINK-5995,PAYLOAD,2024-05-22 00:43:00,14.98347698,0.0003097,70.0025,0.1768,269.1821,90.8983,0.00070632,8.349e-05,0.0,0 STARLINK-5995,1 56456U 23064J   24143.02986615  .00008349  00000-0  70632-3 0  9997,2 56456  70.0025   0.1768 0003097 269.1821  90.8983 14.98347698 56885,6950.138,96.106,574.156,569.851,0.0
56456.0,STARLINK-5995,PAYLOAD,2024-05-22 19:56:37,14.98335482,0.0002603,70.0033,358.1575,258.0453,102.0415,0.00016442,1.87e-05,0.0,0 STARLINK-5995,1 56456U 23064J   24143.83098580  .00001870  00000-0  16442-3 0  9992,2 56456  70.0033 358.1575 0002603 258.0453 102.0415 14.98335482 57364,6950.176,96.107,573.85,570.232,0.0
56456.0,STARLINK-5995,PAYLOAD,2024-05-22 21:32:45,14.98334332,0.0002711,70.0029,357.9888,268.2458,91.8391,4.2013e-05,4.08e-06,0.0,0 STARLINK-5995,1 56456U 23064J   24143.89774710  .00000408  00000-0  42013-4 0  9994,2 56456  70.0029 357.9888 0002711 268.2458  91.8391 14.98334332 57014,6950.179,96.107,573.929,570.16,0.0
56456.0,STARLINK-5995,PAYLOAD,2024-05-23 00:45:01,14.98333594,0.0002735,70.0027,357.652,268.631,91.4536,2.9123e-05,2.55e-06,0.0,0 STARLINK-5995,1 56456U 23064J   24144.03126747  .00000255  00000-0  29123-4 0  9999,2 56456  70.0027 357.6520 0002735 268.6310  91.4536 14.98333594 57037,6950.182,96.107,573.948,570.146,0.0
56456.0,STARLINK-5995,PAYLOAD,2024-05-23 19:58:37,14.98337918,0.0002889,70.0019,355.6323,258.4755,101.608,0.00010062,1.108e-05,0.0,0 STARLINK-5995,1 56456U 23064J   24144.83238243  .00001108  00000-0  10062-3 0  9991,2 56456  70.0019 355.6323 0002889 258.4755 101.6080 14.98337918 57152,6950.168,96.106,574.041,570.026,0.0
56456.0,STARLINK-5995,PAYLOAD,2024-05-23 23:10:53,14.98337496,0.0002906,70.0018,355.2955,259.7847,100.2984,8.7679e-05,9.54e-06,0.0,0 STARLINK-5995,1 56456U 23064J   24144.96590218  .00000954  00000-0  87679-4 0  9995,2 56456  70.0018 355.2955 0002906 259.7847 100.2984 14.98337496 57535,6950.17,96.107,574.054,570.015,0.0
56456.0,STARLINK-5995,PAYLOAD,2024-05-24 13:36:06,14.98333909,0.0002863,70.0005,353.7799,264.0012,96.0821,0.0001238,1.385e-05,0.0,0 STARLINK-5995,1 56456U 23064J   24145.56674383  .00001385  00000-0  12380-3 0  9993,2 56456  70.0005 353.7799 0002863 264.0012  96.0821 14.98333909 57262,6950.181,96.107,574.036,570.056,0.0
56456.0,STARLINK-5995,PAYLOAD,2024-05-24 21:36:46,14.98333024,0.0002971,70.0002,352.9374,267.6942,92.3877,8.3494e-05,9.03e-06,0.0,0 STARLINK-5995,1 56456U 23064J   24145.90054394  .00000903  00000-0  83494-4 0  9995,2 56456  70.0002 352.9374 0002971 267.6942  92.3877 14.98333024 57673,6950.184,96.107,574.113,569.984,0.0
56456.0,STARLINK-5995,PAYLOAD,2024-05-25 13:38:08,14.98324515,0.0003318,69.9994,351.2537,268.9029,91.175,-6.7753e-05,-9.01e-06,0.0,0 STARLINK-5995,1 56456U 23064J   24146.56815168 -.00000901  00000-0 -67753-4 0  9992,2 56456  69.9994 351.2537 0003318 268.9029  91.1750 14.98324515 57772,6950.21,96.107,574.381,569.769,0.0
56456.0,STARLINK-5995,PAYLOAD,2024-05-26 13:40:08,14.98313572,0.0003683,69.9993,348.7285,270.4233,89.6504,0.00032476,3.783e-05,0.0,0 STARLINK-5995,1 56456U 23064J   24147.56954777  .00003783  00000-0  32476-3 0  9995,2 56456  69.9993 348.7285 0003683 270.4233  89.6504 14.98313572 57929,6950.244,96.108,574.668,569.549,0.0
56456.0,STARLINK-5995,PAYLOAD,2024-05-26 15:16:16,14.98318114,0.000363,69.9994,348.5595,273.1568,86.9175,0.00034793,4.06e-05,0.0,0 STARLINK-5995,1 56456U 23064J   24147.63630536  .00004060  00000-0  34793-3 0  9990,2 56456  69.9994 348.5595 0003630 273.1568  86.9175 14.98318114 57577,6950.23,96.108,574.618,569.572,0.0
56456.0,STARLINK-5995,PAYLOAD,2024-05-26 20:04:40,14.98333997,0.000325,69.9997,348.0549,270.1589,89.9198,0.00014814,1.675e-05,0.0,0 STARLINK-5995,1 56456U 23064J   24147.83658080  .00001675  00000-0  14814-3 0  9997,2 56456  69.9997 348.0549 0003250 270.1589  89.9198 14.98333997 57969,6950.181,96.107,574.304,569.787,0.0
56456.0,STARLINK-5995,PAYLOAD,2024-05-26 21:40:48,14.98336644,0.0003178,69.9996,347.8868,270.8296,89.2499,0.00011027,1.223e-05,0.0,0 STARLINK-5995,1 56456U 23064J   24147.90333971  .00001223  00000-0  11027-3 0  9996,2 56456  69.9996 347.8868 0003178 270.8296  89.2499 14.98336644 57611,6950.172,96.107,574.246,569.829,0.0
56456.0,STARLINK-5995,PAYLOAD,2024-05-27 13:42:09,14.98321186,0.00032,69.9998,346.2035,270.4385,89.6408,0.00024301,2.807e-05,0.0,0 STARLINK-5995,1 56456U 23064J   24148.57094544  .00002807  00000-0  24301-3 0  9998,2 56456  69.9998 346.2035 0003200 270.4385  89.6408 14.98321186 58073,6950.22,96.108,574.309,569.861,0.0
56456.0,STARLINK-5995,PAYLOAD,2024-05-27 21:42:49,14.9833013,0.000302,70.0001,345.3628,265.2961,94.7853,0.00014221,1.604e-05,0.0,0 STARLINK-5995,1 56456U 23064J   24148.90474254  .00001604  00000-0  14221-3 0  9999,2 56456  70.0001 345.3628 0003020 265.2961  94.7853 14.98330130 57766,6950.192,96.107,574.156,569.959,0.0
56456.0,STARLINK-5995,PAYLOAD,2024-05-28 12:08:02,14.98335565,0.0002922,70.0003,343.8481,266.4628,93.6197,5.3163e-05,5.41e-06,0.0,0 STARLINK-5995,1 56456U 23064J   24149.50558051  .00000541  00000-0  53163-4 0  9992,2 56456  70.0003 343.8481 0002922 266.4628  93.6197 14.98335565 58218,6950.176,96.107,574.072,570.01,0.0
56456.0,STARLINK-5995,PAYLOAD,2024-05-28 13:44:10,14.98334559,0.000292,70.0002,343.6793,267.0081,93.0744,4.1508e-05,4.02e-06,0.0,0 STARLINK-5995,1 56456U 23064J   24149.57234108  .00000402  00000-0  41508-4 0  9999,2 56456  70.0002 343.6793 0002920 267.0081  93.0744 14.98334559 57863,6950.179,96.107,574.073,570.014,0.0
56456.0,STARLINK-5995,PAYLOAD,2024-05-28 21:44:50,14.98334108,0.0002942,70.0002,342.8376,266.4963,93.586,2.3204e-05,1.84e-06,0.0,0 STARLINK-5995,1 56456U 23064J   24149.90614040  .00000184  00000-0  23204-4 0  9993,2 56456  70.0002 342.8376 0002942 266.4963  93.5860 14.98334108 57917,6950.18,96.107,574.09,570.0,0.0
56456.0,STARLINK-5995,PAYLOAD,2024-05-29 13:46:11,14.98331552,0.0002933,70.0001,341.1537,265.7182,94.3641,4.4767e-05,4.41e-06,0.0,0 STARLINK-5995,1 56456U 23064J   24150.57374044  .00000441  00000-0  44767-4 0  9998,2 56456  70.0001 341.1537 0002933 265.7182  94.3641 14.98331552 58010,6950.188,96.107,574.092,570.015,0.0
56456.0,STARLINK-5995,PAYLOAD,2024-05-29 20:10:43,14.98331434,0.0002971,70.0,340.4804,265.9988,94.0831,3.6628e-05,3.44e-06,0.0,0 STARLINK-5995,1 56456U 23064J   24150.84078089  .00000344  00000-0  36628-4 0  9997,2 56456  70.0000 340.4804 0002971 265.9988  94.0831 14.98331434 58417,6950.188,96.107,574.118,569.989,0.0
56456.0,STARLINK-5995,PAYLOAD,2024-05-29 21:46:51,14.98331901,0.0002963,70.0,340.3121,265.5877,94.4944,4.0796e-05,3.94e-06,0.0,0 STARLINK-5995,1 56456U 23064J   24150.90754037  .00000394  00000-0  40796-4 0  9994,2 56456  70.0000 340.3121 0002963 265.5877  94.4944 14.98331901 58061,6950.187,96.107,574.111,569.993,0.0
56456.0,STARLINK-5995,PAYLOAD,2024-05-30 13:48:11,14.98333028,0.0002956,70.0,338.6286,263.3107,96.7716,6.5382e-05,6.87e-06,0.0,0 STARLINK-5995,1 56456U 23064J   24151.57513869  .00000687  00000-0  65382-4 0  9997,2 56456  70.0000 338.6286 0002956 263.3107  96.7716 14.98333028 58162,6950.184,96.107,574.103,569.994,0.0
56456.0,STARLINK-5995,PAYLOAD,2024-05-30 21:48:52,14.98334147,0.0002967,69.9999,337.787,262.7552,97.327,7.1914e-05,7.65e-06,0.0,0 STARLINK-5995,1 56456U 23064J   24151.90893726  .00000765  00000-0  71914-4 0  9992,2 56456  69.9999 337.7870 0002967 262.7552  97.3270 14.98334147 58215,6950.18,96.107,574.107,569.983,0.0
56456.0,STARLINK-5995,PAYLOAD,2024-05-31 13:50:12,14.98333417,0.000297,69.9999,336.1038,262.9106,97.1716,8.8806e-05,9.67e-06,0.0,0 STARLINK-5995,1 56456U 23064J   24152.57653650  .00000967  00000-0  88806-4 0  9998,2 56456  69.9999 336.1038 0002970 262.9106  97.1716 14.98333417 58318,6950.182,96.107,574.112,569.983,0.0
56456.0,STARLINK-5995,PAYLOAD,2024-05-31 21:50:53,14.98333936,0.0003103,69.9994,335.2612,270.6449,89.4354,7.3973e-05,7.9e-06,0.0,0 STARLINK-5995,1 56456U 23064J   24152.91033598  .00000790  00000-0  73973-4 0  9992,2 56456  69.9994 335.2612 0003103 270.6449  89.4354 14.98333936 58729,6950.181,96.107,574.202,569.889,0.0
56456.0,STARLINK-5995,PAYLOAD,2024-06-01 12:16:05,14.98329023,0.0003035,69.9995,333.7462,270.5858,89.4953,2.2982e-05,1.81e-06,0.0,0 STARLINK-5995,1 56456U 23064J   24153.51118027  .00000181  00000-0  22982-4 0  9998,2 56456  69.9995 333.7462 0003035 270.5858  89.4953 14.98329023 58810,6950.196,96.107,574.17,569.952,0.0
56456.0,STARLINK-5995,PAYLOAD,2024-06-01 13:52:14,14.98328825,0.0003039,69.9995,333.5779,270.5932,89.4879,1.9791e-05,1.43e-06,0.0,0 STARLINK-5995,1 56456U 23064J   24153.57794046  .00000143  00000-0  19791-4 0  9997,2 56456  69.9995 333.5779 0003039 270.5932  89.4879 14.98328825 58463,6950.197,96.107,574.174,569.949,0.0
56456.0,STARLINK-5995,PAYLOAD,2024-06-02 12:18:06,14.98332657,0.000303,69.9997,331.2208,269.5439,90.5372,6.1703e-05,6.43e-06,0.0,0 STARLINK-5995,1 56456U 23064J   24154.51257658  .00000643  00000-0  61703-4 0  9990,2 56456  69.9997 331.2208 0003030 269.5439  90.5372 14.98332657 58962,6950.185,96.107,574.156,569.944,0.0
56456.0,STARLINK-5995,PAYLOAD,2024-06-03 12:20:07,14.98332479,0.0003116,69.9996,328.6961,268.6779,91.4023,9.4185e-05,1.031e-05,0.0,0 STARLINK-5995,1 56456U 23064J   24155.51397534  .00001031  00000-0  94185-4 0  9991,2 56456  69.9996 328.6961 0003116 268.6779  91.4023 14.98332479 59112,6950.185,96.107,574.216,569.885,0.0
56456.0,STARLINK-5995,PAYLOAD,2024-06-04 13:58:16,14.98331695,0.0002984,69.9993,326.003,269.6929,90.3888,3.0137e-05,2.67e-06,0.0,0 STARLINK-5995,1 56456U 23064J   24156.58213634  .00000267  00000-0  30137-4 0  9994,2 56456  69.9993 326.0030 0002984 269.6929  90.3888 14.98331695 58911,6950.188,96.107,574.127,569.979,0.0
